[{"OBJECT_NAME":"STARLINK-4326","OBJECT_ID":"2022-077AQ","EPOCH":"2026-03-09T22:13:55.060608","MEAN_MOTION":15.01262959,"ECCENTRICITY":6.4e-5,"INCLINATION":97.6047,"RA_OF_ASC_NODE":250.428,"ARG_OF_PERICENTER":114.0681,"MEAN_ANOMALY":246.061,"EPHEMERIS_TYPE":0,"CLASSIFICATION_TYPE":"U","NORAD_CAT_ID":53081,"ELEMENT_SET_NO":999,"REV_AT_EPOCH":20095,"BSTAR":4.35826e-5,"MEAN_MOTION_DOT":5.02e-6,"MEAN_MOTION_DDOT":0},{"OBJECT_NAME":"PEGASUS DEB","OBJECT_ID":"1994-029YH","EPOCH":"2026-03-09T13:48:40.247712","MEAN_MOTION":13.39711213,"ECCENTRICITY":0.0728479,"INCLINATION":81.5431,"RA_OF_ASC_NODE":97.4781,"ARG_OF_PERICENTER":287.3771,"MEAN_ANOMALY":203.8925,"EPHEMERIS_TYPE":0,"CLASSIFICATION_TYPE":"U","NORAD_CAT_ID":24581,"ELEMENT_SET_NO":999,"REV_AT_EPOCH":42256,"BSTAR":0.0015334,"MEAN_MOTION_DOT":4.131e-5,"MEAN_MOTION_DDOT":0}]
